{"spkid": "20004486", "covariance": {"elements": [{"units": null, "title": "eccentricity", "value": ".6629989546988798", "name": "e", "sigma": 1.32987461587347e-08, "label": "e"}, {"label": "q", "name": "q", "sigma": 2.94251547394439e-08, "units": "au", "value": ".7413470091092749", "title": "perihelion distance"}, {"label": "tp", "name": "tp", "sigma": 5.94737278589487e-06, "title": "time of perihelion passage", "value": "2458888.144354557429", "units": "TDB"}, {"sigma": 4.27554314292281e-05, "name": "om", "title": "longitude of the ascending node", "value": "82.23806441680273", "units": "deg", "label": "node"}, {"name": "w", "sigma": 4.2217436255783e-05, "units": "deg", "title": "argument of perihelion", "value": "168.8905731109324", "label": "peri"}, {"name": "i", "sigma": 1.47622823388892e-06, "title": "inclination", "value": "3.039776741219654", "units": "deg", "label": "i"}], "data": [["1.768566493944612E-16", "-3.912882329452404E-16", "-2.335150040137955E-14", "-5.301332867173887E-14", "4.825011043818127E-14", "1.305020281790896E-15"], ["-3.912882329452404E-16", "8.658397314402149E-16", "5.369813833240172E-14", "1.208908483753818E-13", "-1.097439356902174E-13", "-2.817892758737766E-15"], ["-2.335150040137955E-14", "5.369813833240172E-14", "3.53712430544029E-11", "6.295317234351531E-11", "-5.4060483766159E-11", "9.742842687502508E-13"], ["-5.301332867173887E-14", "1.208908483753818E-13", "6.295317234351531E-11", "1.828026916699423E-9", "-1.802056576555092E-9", "5.994072514555786E-11"], ["4.825011043818127E-14", "-1.097439356902174E-13", "-5.4060483766159E-11", "-1.802056576555092E-9", "1.782311924011098E-9", "-5.974118424669176E-11"], ["1.305020281790896E-15", "-2.817892758737766E-15", "9.742842687502508E-13", "5.994072514555786E-11", "-5.974118424669176E-11", "2.179249798530793E-12"]], "labels": ["e", "q", "tp", "node", "peri", "i"], "epoch": "2458504.5"}, "elements": [{"label": "e", "sigma": "1.3194E-8", "name": "e", "value": ".6598497281232912", "title": "eccentricity", "units": null}, {"label": "a", "title": "semi-major axis", "value": "2.205244726339535", "units": "au", "sigma": "7.992E-10", "name": "a"}, {"name": "q", "sigma": "2.9178E-8", "title": "perihelion distance", "value": ".7501145932190711", "units": "au", "label": "q"}, {"name": "i", "sigma": "1.5459E-6", "units": "deg", "value": "3.029603411273411", "title": "inclination; angle with respect to x-y ecliptic plane", "label": "i"}, {"label": "node", "value": "82.1637683090684", "title": "longitude of the ascending node", "units": "deg", "sigma": "4.2561E-5", "name": "om"}, {"name": "w", "sigma": "4.2016E-5", "units": "deg", "value": "169.3002221341814", "title": "argument of perihelion", "label": "peri"}, {"name": "ma", "sigma": "2.3094E-6", "units": "deg", "title": "mean anomaly", "value": "336.4031483600793", "label": "M"}, {"label": "tp", "name": "tp", "sigma": "7.7021E-6", "value": "2461278.903450530035", "title": "time of perihelion passage", "units": "TDB"}, {"label": "period", "name": "per", "sigma": "6.5024E-7", "units": "d", "value": "1196.144410344207", "title": "sidereal orbital period"}, {"units": "deg/d", "title": "mean motion", "value": ".3009670043907199", "name": "n", "sigma": "1.6361E-10", "label": "n"}, {"sigma": "1.3266E-9", "name": "ad", "units": "au", "value": "3.66037485946", "title": "aphelion distance", "label": "Q"}], "epoch": "2461200.5"}